ID,Public Library Authorities,Country,ARCON CODE,Name of Library or Collection,"Address, including postcode",Lat,Lon,Main website,e-mail contact,Local Studies/Archive/Both 1,Notes on coverage combined
1,Barking and Dagenham,England,350,Barking and Dagenham Archives and Local Studies Service,"Archives and Local Studies Centre, Valence House Museum, Becontree Avenue, Dagenham, England, RM8 3HT",51.558308,0.134196,https://ww2.lbbd.gov.uk/residents/leisure-libraries-and-museums/history-heritage-and-archives/,localstudies@lbbd.gov.uk,Both,
2,Barnet,England,77,Barnet Local Studies and Archives,"The Burroughs, London, England, NW4 4BQ",53.74938065,-2.485284242,www.barnet.gov.uk/libraries/local-studies-and-archives ,library.archvies@barnet.gov.uk,Both,
3,Barnsley,England,196,Barnsley Archive and Local Studies Department,"Town Hall, Church Street, Barnsley, England, S70 2TA",53.55422085,-1.482728705,www.experience-barnsey.com/arcihves-and-discoverycentre ,archives@barnsley.gov.uk,Both,Plus museum
4,Bath and NE Somerset,England,256,Bath Record Office: Local Studies,"Bath Record Office: Archives & Local Studies, The Guildhall, High Street, Bath, England, BA1 5AW",51.381893,-2.358842,www.batharchives.co.uk,archives@bathnes.gov.uk,Both,Local Studies and Archive collections joined together in 2017.
5,Bedford,England,,Bedfordshire Heritage Library,"Central Library, Harpur Street, Bedford, MK40 1PG",52.1364382,-0.468046384,http://virtual-library.culturalservices.net/webingres/bedfordshire/vlib/0.local_studies/beds_heritage_library.htm,Auto email,Local Studies,
6,Bexley,England,79,Bexley Local Studies and Archive Centre,"Central Library, Townley Road, Bexleyheath, England, DA6 7HJ",51.45585595,0.143677608,www.bexley.gov.uk/service/archives-and-local-history,archives@bexley.gov.uk,Both,
7,Birmingham,England,,The Library of Birmingham - Archives and Heritage,"Library of Birmingham, Centenary Square, Broad Street, Birmingham, B1 2ND",52.47968625,-1.908478277,https://www.birmingham.gov.uk/info/20087/libraries,archives.heritage@birmingham.gov.uk,Both,
8,Blackburn with Darwen,England,,Blackburn Libraries,"Blackburn Central Library, Town Hall Street, Blackburn, BB2 1AG ",53.74938065,-2.485284242,www.blackburn.gov.uk/pages/localhistory.aspx,library@blackburn.gov.uk,Local Studies,
9,Blackpool,England,,Blackpool History Centre,"The History Centre, 
First floor,
 Blackpool Central Library,
 Queen Street,
 Blackpool, 
 FY1 1PX",53.8206208,-3.053113654,www.blackpool.gov.uk/residents/libraries-arts-and-heritage/collection-and-archive/history.aspx,historycentre@blackpool.gov.uk,Local Studies,
10,Bolton,England,125,"Bolton Archives and Local Studies, Bolton History Centre","Bolton Archives and Local Studies,
Bolton History Centre,
Le Mans Crescent,
Bolton,
BL1 1SE",53.578495,-2.431135,www.bolton.gov.uk/discover-library/local-history,archives@bolton.gov.uk,Both,
11,Bournemouth,England,,Not clear,Not clear,,,Not clear,Not clear,Not clear,
12,Bracknell Forest,England,,Bracknell Central library,"Bracknell Library, The Avenue,Bracknell,RG12 1BH",51.41788625,-0.74790455,https://www.bracknell-forest.gov.uk/libraries/library-services/local-and-family-history/local-history-photographs,,Local Studies,
13,Bradford,England,2750,Bradford Local Studies Library,"Local Studies Library, Margaret McMillan Tower, Princes Way, Bradford. BD1 11N",53.790435,-1.754753,,,Local Studies,
14,Bradford,England,538,Keighley Local Studies Library,"Keighley Library, North Street, Keighley, BD21 3SX",53.86824225,-1.909973847,https://www.bradford.gov.uk/libraries/find-your-local-library/keighley-local-studies-library/,keighleylocalstudies@bradford.gov.uk,,
15,Brent,England,,Brent Museum and Archives,"The Library at Willesden Green, 95 High Road, Willesden, London, NW10 2SF",51.54682515,-0.228991902,,museum.archives@brent.gov.uk,Both,Plus museum service
16,Brighton and Hove,England,3091,The Keep - Brighton and Hove,"The Keep, Wollards Way ,Brighton, BN1 9BP",50.857777,-0.097333,https://www.thekeep.info/brighton-hove/,thekeep@eastsussex.gov.uk,Both,Also includes Sussex University Special Collections
17,Bristol,England,,Bristol Reference Library,"Central Library, College Green, Bristol, BS1 5TL",51.451626,-2.601874,https://www.bristol.gov.uk/libraries-archives/local-history,refandinfo@bristol.gov.uk,Local Studies,
18,Bromley,England,,Bromley Central Library,"Central Library, High Street, Bromley, BR1 1EX",51.4036103,"0.0146503,",www.bromley.gov.uk/historiccollections,historic.collections@GLL.org,Both,
19,Buckinghamshire,England,,Centre for Buckinghamshire Studies,"Centre for Buckinghamshire Studies, County Hall, Walton Street, Aylesbury, HP20 1UU",51.814878,-0.81225,www.buckscc.gov.uk/services/culture-and-leisure/centre-for-buckinghamshire-studies/,archives@buckscc.gov.uk,Both,
20,Bury,England,,Bury Archives,"Bury Archives, Moss Street, Bury, BL9 0DR",53.591906,-2.299082,www.bury.gov.uk/index.aspx?articleid=10620,auto email,Both,
21,Calderdale,England,,Central Library & Archive,"Central Library and Archive, Square Road, Halifax, HX1 1QG",53.72199245,-1.855961495,www.calderdale.gov.uk/v2/residents/leisure-and-culture/local-history-and-heritage/local-studies-and-family-history-libraries,reference.library@calderdale.gov.uk,Local Studies,West Yorkshire Archives also has a base in the library
22,Cambridgeshire,England,,Cambridgeshire Collection - Cambridge Central Library,"Cambridge Central Library, 7 Lion Yard, Cambridge, CB2 3QD",52.204518,0.120497,https://www.cambridgeshire.gov.uk/residents/libraries-leisure-&-culture/local-studies/cambridgeshire-collection/,Cambridgeshire.collection@cambridgeshire.gov.uk,Local Studies,
23,Cambridgeshire,England,,Huntingdon Library and Archive,"Princes Street, Huntingdon, PE29 3PA",52.3296243,-0.184461519,http://www.cambridgeshire.gov.uk/info/20002/libraries_leisure_and_culture,Localstudies.hunts@cambridgeshire.gov.uk,Local Studies,
24,Cambridgeshire,England,,Wisbech Library,"Fenland Collection, 5 Ely Place, Wisbech, PE13 1EU",52.66434645,0.161059759,https://www.cambridgeshire.gov.uk/residents/libraries-leisure-&-culture/local-studies/fenland-collection/,Localstudies.fenland@cambridgeshire.gov.uk,Local Studies,
25,Camden,England,784,Camden Local Studies and Archive Centre,"Holborn Library, 32-38 Theobalds Road, London, WC1X 8PA",51.5210756,-0.1156142,https://www.camden.gov.uk/local-studies-archives-centre,localstudies@camden.gov.uk,Both,
26,Central Bedfordshire,England,,Bedfordshire Heritage Library,see Bedford,,,,,,
27,Cheshire East,England,17,Cheshire Archives and Local Studies,"Cheshire Record Office Duke Street, Chester, England, CH1 1RL",53.18703475,-2.88851464,http://www.cheshirearchives.org.uk/,recordoffice@cheshiresharedservices.gov.uk,Both,
28,Cheshire West and Chester,England,17,Cheshire Archives and Local Studies,see Cheshire East,,,,,,
29,City of London,England,76,Guildhall Library,"Aldermanbury, London EC2V, 7HH",51.5161758,-0.0925982,https://www.cityoflondon.gov.uk/things-to-do/guildhall-library/Pages/default.aspx,guildhall.library@cityoflondon.gov.uk,Both,Manuscripts managed by London Metropolitan Archives.
30,Cornwall,England,21,Kresen Kernow (Cornwall Centre),"Kresen Kernow, Little Vauxhall, Redruth TR15 1AS",50.2350154,-5.234333339,https://kresenkernow.org/,kresenkernow@cornwall.gov.uk,Both,
31,Coventry,England,144,Coventry History Centre,"Coventry History Centre, Jordan Well, Coventry, CV1 5QP",52.407096,-1.506102,https://www.theherbert.org/collections/history_centre.aspx,historycentre@theherbert.org,Both,
32,Croydon,England,352,Croydon Museum and Archive Service,"Croydon Clocktower, Katharine Street, Croydon, CR9 1ET",51.37204165,-0.099460694,www.croydon.gov.uk/leisure/archives/lslibrary,museum@croydon.gov.uk,Both,
33,Cumbria,England,1831,"Cumbria Archive and Local Studies Centre, Barrow","Cumbria Archive and Local Studies Centre, Ramsden Square, Barrow-in-Furness, England, LA14 1LL",54.114388,-3.231623,https://www.cumbria.gov.uk/archives/archivecentres/balsc.asp,barrow.archives@cumbria.gov.uk,Both,
34,Cumbria,England,1831,"Cumbria Archive and Local Studies Centre, Whitehaven","Scotch Street, Whitehaven, England, CA28 7NL",54.547861,-3.585257,https://www.cumbria.gov.uk/archives/archivecentres/whalsc.asp,whitehaven.archives@cumbria.gov.uk,Both,
35,Darlington,England,,Darlington Centre for Local Studies,"Darlington Library, Crown Street, Darlington, DL1 1ND",54.5262241,-1.5527811,https://www2.darlington.gov.uk/web/arena/local-and-family-history,local.studies@darlington.gov.uk,Local Studies,
36,Derby,England,288,Derby Local Studies and Family History Library,"Riverside Chambers, Full Street, Derby, DE1 3AF",52.9239745,-1.474789,https://www.inderby.org.uk/libraries/our-libraries/derby-local-studies-and-family-history-library/,localstudies.library@derby.gov.uk,Local Studies,
37,Derbyshire,England,1944,Derbyshire Local Studies Library,"Derbyshire Record Office, New Street, Matlock, DE4 3FE",53.140255,-1.551611,https://www.derbyshire.gov.uk/leisure/record-office/derbyshire-record-office.aspx,record.office@derbyshire.gov.uk,Both,
38,Devon,England,27,Devon Archives and Local Studies Service,"Devon Heritage Centre Great Moor House Bittern Road, Exeter, England, EX2 7NL",50.724666,-3.469146,https://swheritage.org.uk/devon-archives/,devonarchives@swheritage.org.uk,Both,
39,Doncaster,England,,Doncaster Local Studies Library,"Central Library, Waterdale, Doncaster, DN1 3JE",53.5205544,-1.132068716,https://library.doncaster.gov.uk/web/arena/local-studies,central.localhistory@doncaster.gov.uk,Local Studies,
40,Dorset,England,31,Dorset History Centre,"Bridport Road, Dorchester, Dorset, DT1 1RP",50.7146052,-2.44518469,https://www.dorsetcouncil.gov.uk/libraries-history-culture/dorset-history-centre/dorset-history-centre.aspx,archives@dorsetcc.gov.uk,Both,
41,Dudley,England,145,Dudley Archives and Local History Service,"Archives & Local History Centre, Tipton Road, Dudley, West Midlands, DY1 4SQ",52.5188322,-2.07481825,https://www.dudley.gov.uk/things-to-do/dudley-borough-libraries/archives-and-local-history-service/,dudley.archives@gll.org,Both,
42,Durham,England,,Durham Clayport Library,"Millennium Place, Durham, County Durham, DH1 1WA",54.7783519,"-1.5751952,",https://www.durham.gov.uk/article/2070/Discover-local-history-in-your-library,DurhamClayportLibrary@durham.gov.uk,Local Studies,
43,Ealing,England,1158,Ealing Local History Centre,"West Ealing Library, Melbourne Avenue, West Ealing, London, England, W13 9BT",51.5094007,-0.3245923,https://www.ealing.gov.uk/info/201244/local_history_centre,LocalHistoryLibrary@ealing.gov.uk,Both,
44,East Riding of Yorkshire,England,47,East Riding of Yorkshire Archives and Local Studies Service,"The Treasure House, Champney Road, Beverley, England, HU17 9BA",53.840452,-0.42899,https://www.eastriding.gov.uk/leisure/archives-family-and-local-history/,archives.service@eastriding.gov.uk,Both,
45,Hull City Council,England,322,Hull History Centre,"Hull History Centre, Worship Street, Hull, England, HU2 8BG",53.747664,-0.336646,http://www.hullhistorycentre.org.uk/,hullhistorycentre@hullcc.gov.uk,Both,
46,East Sussex,England,353,The Keep - East Sussex local and family history collections,"Woollards Way, Brighton, BN1 9BP",50.8578211,-0.097676377,http://www.thekeep.info/about_us/,thekeep@eastsussex.gov.uk,Archive,
47,Enfield,England,,Enfield Local Studies Library and Archive (Dugdale Centre),"First Floor, Dugdale, 39 London Road, Enfield, England, EN2 6DS",51.650374,-0.080262,https://www.dugdalecentre.co.uk/page/local-studies-library-and-archive/,local.history@enfield.gov.uk,Both,
48,Essex,England,185,Essex Record Office,"Wharf Road, Chelmsford, Essex, CM2 6YT",51.73019785,0.481046705,https://www.essexrecordoffice.co.uk/,ero.enquiry@essex.gov.uk,Archive,
49,Gateshead,England,,"Gateshead Central Library, Local Studies","Prince Consort Road, Gateshead, England, NE8 4LN",54.9513419,-1.6014292,http://www.gatesheadlocalstudies.com/,libraries@gateshead.gov.uk,Both,
50,Gloucestershire,England,,Gloucestershire Archives,"Gloucestershire Heritage Centre, Clarence Row, Alvin Street, Gloucester, GL1 3DW",51.86868,-2.241328,https://www.gloucestershire.gov.uk/archives,archives@gloucestershire.gov.uk,Both,
51,Gloucestershire,England,,Gloucestershire Libraries,Various,,,https://www.gloucestershire.gov.uk/archives/starting-your-research/starting-to-research-the-history-of-your-area/,Various,Local Studies,
52,Greenwich,England,,Royal Greenwich Archives,"Charlton House,Charlton Road,London,SE7 8RE",51.4808642,0.0359217,https://www.royalgreenwich.gov.uk/info/200228/local_history_and_heritage/251/local_history_and_archives,info@rght.org.uk. Must email in advance before visiting ,Both,
53,Hackney,England,,Hackney Archives and Local History,"Dalston CLR James Library, Dalston Square, Hackney, London, E8 3BQ",51.54604345,-0.07391345,https://hackney.gov.uk/archives,archives@hackney.gov.uk,Both,
54,Halton,England,,Halton Libraries,"Halton Lea Library, Halton, Runcorn, Cheshire, WA7 2PF     and   Widnes Library,Victoria Square, Widnes, Cheshire, WA8 7QT",53.328873,-2.697899,https://library.haltonbc.info/community-family-history/,haltonlea.library@halton.gov.uk     and        widnes.library@halton.gov.uk,Local Studies,
55,Hammersmith and Fulham,England,85,Hammersmith and Fulham Archives and Local History Centre,"Hammersmith and Fulham Archives and Local History Centre, 1st Floor, Hammersmith Library, Shepherds Bush Road, London, W6 7AT
",51.4945917,-0.223631787,https://www.lbhf.gov.uk/libraries/local-studies-and-archives,archives@lbhf.gov.uk,Both,
56,Hampshire,England,41,Hampshire Archives and Local Studies,"Hampshire Record Office, Sussex Street, Winchester, England, SO23 8TH",51.0664856,-1.318567728,https://www.hants.gov.uk/librariesandarchives/archives,Online form:   https://forms.hants.gov.uk/en/AchieveForms/?form_uri=sandbox-publish://AF-Process-03882281-c82a-41b9-ad9d-bce23a0ecc40/AF-Stage-7ff271a4-3049-4297-8237-312ebc8dbcc2/definition.json&redirectlink=/en&cancelRedirectLink=/en,Both,
57,Haringey,England,,Haringey Archive & Local History Collections,"Haringey Archives Service, Bruce Castle Museum, Lordship Lane, Tottenham, N17 8NU. ",51.599,-0.075462,www.haringey.gov.uk/libraries-sport-and-leisure/culture-and-entertainment/visiting-haringey/haringey-archive-and-local-history#localhistory,museum.services@haringey.gov.uk,Both,
58,Harrow,England,,Harrow Local History Centre,"Headstone Manor and Museum, Pinner View, Harrow, HA2 6PX",51.594534,-0.354433,https://headstonemanor.org/,info@headstonemanor.org,Local Studies,
59,Hartlepool,England,,Hartlepool Local Studies Collection,"Information & Reference Department, Community Hub Central, 124 York Road, Hartlepool, TS26 9DE",54.683574,-1.216599,https://www.hartlepool.gov.uk/info/20012/libraries/183/family_and_local_history_library,infodesk@hartlepool.gov.uk,Local Studies,
60,Havering,England,1159,Havering Local Studies and Family History Centre,"Central Library, St Edward's Way, Romford, RM1 3AR",51.580625,0.183814,https://llc.ent.sirsidynix.net.uk/client/en_GB/havering/?rm=COLLECTION+OVE0%7C%7C%7C1%7C%7C%7C0%7C%7C%7Ctrue,localstudies@havering.gov.uk,Local Studies,
61,Herefordshire,England,,Herefordshire Archive and Records Centre,"Fir Tree Lane, Hereford, HR2 6LA",52.038398,-2.687343,https://www.herefordshire.gov.uk/archives,archives@herefordshire.gov.uk,Both,
62,Hertfordshire,England,46,Hertfordshire Archives and Local Studies,"Register Office Block, County Hall, Pegs Lane, Hertford, SG13 8EJ",51.791098,-0.080192,www.hertfordshire.gov.uk/libraries,hals.enquiries@hertfordshire.gov.uk,Both,
63,Hillingdon,England,354,"Hillingdon Local Studies, Archives and Museums Service","Level 6, Uxbridge Library, 14-15 High Street, Uxbridge, UB8 1HD",51.5454,-0.478085,www.hillingdon.gov.uk/history,archives@hillingdon.gov.uk,Both,
64,Hounslow,England,356,Hounslow and Feltham Local Studies Service,"Feltham Library, The Centre, High Street, Feltham, TW13 4GU",51.446437,-0.410965,www.hounslow.gov.uk/info/20136/other_library_services/1692/local_history_and_archives,localstudies@hounslow.gov.uk,Local Studies,
65,Hounslow,England,348,Chiswick and Brentford Local Studies and Archives Collection,"Chiswick Library, Duke’s Avenue, Chiswick, London, W4 2AB",51.4918692,-0.2608975,www.hounslow.gov.uk/info/20136/other_library_services/1692/local_history_and_archives,localstudies@hounslow.gov.uk,Local Studies,
66,Isle of Wight,England,,Isle of Wight Local Studies Collection,"Record Office, 26 Hillside, Newport, PO30 2EB",50.703058,-1.288882,www.iow.gov.uk/Residents/Libraries-Cultural-and-Heritage/Records-Office/Local-History/Local-Studies-Collection/,record.office@iow.gov.uk,Both,Local history collection is mainly held off site in storage - accessed via Isle of Wight Archives www.iow.gov.uk/Residents/Libraries-Cultural-and-Heritage/Records-Office/Local-History/Local-Studies-Collection/
67,Islington,England,1032,Islington Local History Centre,"Islington Local History Centre, Finsbury Library, 245 St John St, London, EC1V 4NB",51.5263135,-0.104372957,www.islington.gov.uk/libraries-arts-and-heritage/heritage/local-history-centre,local.history@islington.gov.uk,Local Studies,
68,Kensington and Chelsea,England,,Kensington and Chelsea Local Studies,"Kensington Central Library, 12 Phillimore Walk, London, W8 7RX",51.5014375,-0.19426393,https://www.rbkc.gov.uk/libraries/local-studies-and-archives,centrallocalenquiries@rbkc.gov.uk,Both,
69,Kent,England,,Kent History and Library Centre,"James Whatman Way, Maidstone, ME14 1LQ",51.28025495,0.517952197,https://www.kentarchives.org.uk/,historyandlibrarycentre@kent.gov.uk,Both.,
70,Kingston upon Hull,England,,Hull History Centre,"Hull History Centre,Worship Street,Hull, HU2 8BG",53.747664,-0.336646,http://www.hullhistorycentre.org.uk/visit-us/our-facilities/local-studies-library.aspx,hullhistorycentre@hcandl.co.uk,Both,
71,Kingston upon Thames,England,177,Kingston History Centre,"Guildhall, High Street, Kingston-upon-Thames, KT1 1EU",51.407553,-0.306068,https://www.kingston.gov.uk/info/200239/museum_and_history_centre/548/visit_kingston_history_centre,local.history@kingston.gov.uk,Both,
72,Kirklees,England,,Huddersfield Local Studies Library ,"Huddersfield Library and Art Gallery, Princess Alexandra Walk, Huddersfield, West Yorkshire, HD1 2SU",53.644289,-1.781678,https://www.kirklees.gov.uk/beta/libraries/local-studies-and-resources.aspx,huddersfield.localhistory@kirklees.gov.uk,Both,
73,Knowsley,England,1076,The ARK: Archive Resource for Knowsley,"The ARK, The Kirkby Centre, Norwich Way, Kirkby, L32 8RR",53.481952,-2.889871,http://archives.knowsley.gov.uk,infoheritage@knowsley.gov.uk,Both,
74,Lambeth,England,88,Lambeth Archives,"Minet Library, 52 Knatchbull Road, London, SE5 9QY",51.47138705,-0.105294626,https://www.lambeth.gov.uk/places/lambeth-archives,archives@lambeth.gov.uk,Both,
75,Lancashire,England,,Lancaster Central Library,"Market Square, Lancaster, Lancashire, LA1 1HY",54.04918065,-2.801569656,https://www.lancashire.gov.uk/libraries-and-archives/libraries/find-a-library/lancaster-central-library/,lancaster.library@lancashire.gov.uk,Local Studies,
76,Lancashire,England,55,Lancashire Archives,"Bow Lane, Preston, Lancashire, PR1 2RE",53.75849015,-2.711351793,https://www.lancashire.gov.uk/libraries-and-archives/archives-and-record-office/,lancaster.library@lancashire.gov.uk,Both,
77,Leeds,England,,"Local and Family History Library, Leeds Central Library","Local and Family History Library, 2nd Floor- Central Library,Calverley Street,Leeds, LS1 3AB",53.8001556,-1.5486909,https://www.leeds.gov.uk/leisure/libraries/local-and-family-history-services,localandfamilyhistory@leeds.gov.uk,Local Studies,
78,Leicester City,England,,Leicester Central Library        ,"Bishop St, Leicester, LE1 6AA",52.63302195,-1.132280642,https://www.leicester.gov.uk/your-community/libraries-and-community-centres/libraries/find-a-library/leicester-central-library/,,Local Studies,
79,Leicestershire,England,,Loughborough Library ,"Granby St, Loughborough, LE11 3DZ",52.770677,-1.20928,https://www.leicestershire.gov.uk/leisure-and-community/libraries/find-a-library/loughborough-library,loughboroughlibrary@leics.gov.uk,Local Studies,
80,"Leicestershire, Leicester City and Rutland",England,,"The Record Office for Leicestershire, Leicester and Rutland.

","Long Street, Wigston, Leicestershire, LE18 2AH",52.5854202,-1.1066526,http://www.recordoffice.org.uk/resources/local-studies-library/,recordoffice@leics.gov.uk,Both,
81,Lewisham,England,,Lewisham  Local History and Archives Centre,"LOCAL HISTORY AND ARCHIVES CENTRE, LEWISHAM LIBRARY, 199 201 LEWISHAM HIGH STREET, HITHER GREEN, LONDON, SE13 6LG",51.45925365,-0.011667726,https://lewisham.gov.uk/inmyarea/history/archives        ,local.studies@lewisham.gov.uk,Both,
82,Lincolnshire,England,,Lincoln Central Library,"Lincoln Central Library, Free School Ln, Lincoln, Lincolnshire, LN2 1EZ",53.22951875,-0.537123575,https://www.better.org.uk/library/lincolnshire/lincolncentrallibrary,,Local Studies,
83,Liverpool,England,,"Archives and Family History, Liverpool Central Library","3rd Floor Central Library, William Brown Street, Liverpool, L3 8EW
",53.409906,-2.9806463,https://liverpool.gov.uk/libraries/archives-family-history/,,Both,
84,Luton,England,,Luton Central Library,"Luton Central Library, St. George's Square, LUTON, LU1 2NG",51.881043,-0.417274,https://www.lutonculture.com/luton-libraries/learning-in-libraries/local-and-family-history/,libraryinfo@lutonculture.com,Local Studies,
85,Manchester,England,127,Manchester Archives and Local Studies,"Manchester Central Library, St Peter's Square, Manchester, M2 5PD",53.4781312,-2.244709591,https://secure.manchester.gov.uk/info/448/archives_and_local_history,,Both,
86,Medway,England,1204,Medway Archives Centre,"32 Bryant Road, Strood, Kent, ME2 3EP",51.397545,0.491192,https://www.medway.gov.uk/info/200182/arts_and_heritage/317/medway_archives_centre,malsc@medway.gov.uk.,Both,
87,Merton,England,1841,Merton Heritage and Local Studies Centre,"Merton Heritage and Local Studies Centre,
2nd floor, Morden Library,
Merton Civic Centre,
London Road,
Morden, London, SM4 5DX",51.401466,-0.195737,https://libraries.merton.gov.uk/client/en_GB/merton/?rm=HERITAGE+AND+L0%7C%7C%7C1%7C%7C%7C0%7C%7C%7Ctrue,local.studies@merton.gov.uk,Both,
88,Middlesbrough,England,,Not clear,,,,,,,
89,Milton Keynes,England,,"Local Studies Department, Milton Keynes Central Library ","Central Library, 555 Silbury Boulevard,Central Milton Keynes,MK9 3HL",52.043584,-0.759062,https://www.milton-keynes.gov.uk/libraries/reference-business-research/local-studies-and-archives,library.enquiries@milton-keynes.gov.uk,Local Studies,
90,Newcastle upon Tyne,England,1185,Newcastle City Library,"Local Studies and Family History, Charles Avison Building, 33 New Bridge St West, Newcastle Upon Tyne, NE1 8AX",54.97464,-1.610313,https://newcastlecollection.newcastle.gov.uk,information@newcastle.gov.uk,Local Studies,
91,Newham,England,1637,Newham Archaeology and Local History Centre,"Newham Archives and Local Studies Library,
First floor, Stratford Library,
3 The Grove,
Stratford, London,
E15 1EL",51.542748,0.003977,https://www.newham.gov.uk/Pages/Services/Local-history-and-archives.aspx,archiveslocalstudies@newham.gov.uk,Both,
92,Norfolk,England,,Norfolk Heritage Centre,"Norfolk and Norwich Millennium Library, The Forum, Millennium Plain, Norwich, NR2 1AW",52.627736,1.291876,https://www.norfolk.gov.uk/libraries-local-history-and-archives/researching-family-and-local-history/norfolk-heritage-centre,heritagecentre@norfolk.gov.uk,Local Studies,
93,North East Lincolnshire,England,,North East Lincolnshire Local History Library,"Grimsby Library, Town Hall Square, Grimsby, N.E Lincs, DN31 1HG",53.5651224,-0.0825542,https://www.lincsinspirelibraries.com/web/arena/local-heritage,libraries@lincsinspire.com,Local Studies,
94,North Lincolnshire,England,,North Lincolnshire Local Studies Library,"Scunthorpe Central, Carlton Street,Scunthorpe,North Lincolnshire,DN15 6TX",53.59221,-0.643306,https://www.northlincs.gov.uk/schools-libraries-and-learning/libraries/enquiry-and-research-service/,ref.library@northlincs.gov.uk,Local Studies,
95,North Somerset,England,,North Somerset Studies Library,"Town Hall, Walliscote Grove Road, Weston-super-Mare, BS23 1UJ",51.34583435,-2.976902909,https://www.n-somerset.gov.uk/my-services/leisure/local-history-archives/local-history/,local.history@n-somerset.gov.uk,Local Studies,
96,North Tyneside,England,,North Tyneside Local Studies and Information,"Discover North Tyneside, North Shields Customer First Centre,Northumberland Square,North Shields,NE30 1QU",55.0103621,-1.445687075,https://my.northtyneside.gov.uk/category/1017/local-studies-and-information,discover@northtyneside.gov.uk,Local Studies,
97,Northumberland,England,,Northumberland Archives,"QEII Country Park,Ashington,Northumberland,NE63 9YF",55.18993905,-1.547364277,https://www.northumberlandarchives.com,archives@northumberland.gov.uk,Both,
98,North Yorkshire,England,,,,,,https://www.northyorks.gov.uk/libraries-local-collections,,,
99,Northamptonshire,England,,​Northamptonshire Studies,"Northamptonshire Central Library,Abington Street,Northampton,NN1 2BA",52.23854965,-0.891507043,,Form!,,
100,Nottingham,England,,"Local Studies Library, Nottingham Central Library","Nottingham Central Library, Angel Row, Nottingham, NG1 6HP",52.95362925,-1.153321479,www.nottinghamcity.gov.uk/leisure-and-culture/libraries/local-studies-and-family-history,local_studies.library@nottinghamcity.gov.uk,Local Studies,
101,Nottinghamshire,England,,Nottinghamshire Archives,"County House, Castle Meadow Road, Nottingham, NG12 1AG",52.94747225,-1.151023035,www.inspireculture.org.uk/heritage/archives/,archives@inspireculture.org.uk,Archive,Local Studies material held within branch libraries. 
102,Oldham,England,758,Oldham Local Studies & Archives,"84 Union Street, Oldham, England, OL1 1DN",53.54058555,-2.109961622,www.oldham.gov.uk/info/200276/local_history/1855/contact_local_studies_and_archives,archives@oldham.gov.uk,Both,
103,Oxfordshire,England,160,Oxfordshire History Centre,"St Luke's Church, Temple Road, Cowley, Oxford, England, OX4 2HT",51.73461755,-1.212039881,www.oxfordshire.gov.uk/residents/leisure-and-culture/history/oxfordshire-history-centre?utm_term=nil&utm_content=,oxhist@oxfordshire.gov.uk,Both,
104,Peterborough,England,,Peterborough Central Library & Archives,"Broadway, Peterborough, PE1 1RX",52.57650835,-0.241440274,https://vivacity.org/library-archives/archives/peterborough-archive-services/,archives.services@vivacity-peterborough.com,Both,
105,Plymouth,England,,Plymouth Local Studies Collection,"Central Library, 167-171 Armarda Way, Plymouth, PL1 1HZ",50.373244,-4.142822,www.plymouth.gov.uk/libraries/localandfamilyhistory/localhistory,library@plymouth.gov.uk,Local Studies,Local Studies combining with archives in 2020
106,Poole,England,,Poole History Centre,"4 High Street, Poole, Dorset, BH15 1BW",50.712346,-1.989237,www.poolemuseum.org.uk/plan-your-visit/poole-history-centre/,localhistory@poole.gov.uk,Local Studies,
107,Portsmouth,England,42,Portsmouth History Centre,"Portsmouth Central Library, Guildhall Square, Portsmouth, PO1 2DX",50.7972525,-1.092080265,www.portsmouth.gov.uk/ext/libraries/portsmouth-history-centre-and-records-office,portsmouthhistorycentre@portsmouthcc.gov.uk,Both,
108,Reading,England,,Local Studies Collection,"Central Library, Abbey Square, Reading, RG1 3BQ",51.45502715,-0.967763724,www.reading.gov.uk/centrallibrary,info@readinglibraries.org.uk,Local Studies,
109,Redbridge,England,90,Redbridge Local Studies and Archives,"Local History Room [2nd Floor],  Redbridge Central Library, Clements Road, Ilford, IG1 1EA",51.5580614,0.0753621,www.redbridge.gov.uk/libraries/archives-and-history/,info.heritage@visionrcl.org.uk,Both,
110,Redcar and Cleveland,England,,Not clear,,,,,,,
111,Richmond upon Thames,England,358,Richmond upon Thames Local Studies Library and Archive,"Old Town Hall Whittaker Avenue, Richmond, England, TW9 1TP",51.4589026,-0.306460565,https://www.richmond.gov.uk/local_studies_collection,localstudies@richmond.gov.uk,Both,
112,Rochdale,England,128,Rochdale Local Studies and Archive,"Touchstones Rochdale The Esplanade, Rochdale,  OL16 1AQ",53.61511135,-2.162119736,Link4Life (Rochdale Boroughwide Cultural Trust) - Local Studies Centre,touchstones@link4life.org,Both,
113,Rochdale,England,1168,"Heywood Library, Local Studies Collection","Heywood Library, Church Street, Heywood, OL10 1LL",53.5925162,-2.218209998,Heywood Library (rochdale.gov.uk),library.service@rochdale.gov.uk,Local Studies,
114,Rotherham,England,198,Rotherham Archives and Local Studies,"Clifton Park Museum, Clifton Lane, Rotherham,S65 2AA",53.4294997,-1.346804362,Archives and local history – Rotherham Metropolitan Borough Council,Email us,Both,
115,Rutland,England,,As Leicester,,,,,,,
116,St Helens,England,,St Helens Archive Service,"The Gamble Building, Victoria Square, St Helens, Merseyside, WA10 1DY",53.453497,-2.734377,St Helens Archive Service - St Helens Council,archives@sthelens.gov.uk,Archive,
117,Salford,England,,"Local Studies Library, Salford Museum & Art Gallery","Peel Park, The Crescent, Salford, M5 4WU",53.4848918,-2.2720327,Local History Library - Salford Museum & Art Gallery,local.history@scll.co.uk,Art Gallery/Museum,
118,Sandwell,England,,Sandwell Community History and Archives Service,"Smethwick Library, High Street, Smethwick, B66 1AA",52.496451,-1.972629023,Visiting Sandwell Community History and Archives Service | Visit the archives service | Sandwell Council,archives_service@sandwell.gov.uk,Both,
119,Sefton,England,,Sefton Local archives and history,"Crosby Library,Crosby Road North,Waterloo,L22 0LQ",53.4776026,-3.022474184,Local archives and history - Information Services (sefton.gov.uk),,Both,
120,Sheffield,England,1783,"Sheffield City Libraries, Local Studies Section","Central Library, Surrey Street, Sheffield, S1 1XZ",53.3801284,-1.467243733,https://www.sheffield.gov.uk/home/libraries-archives,https://www.sheffield.gov.uk/content/forms/af/your-city-council/enquiry-form.html,Both,
121,Shropshire,England,, Shropshire Archives," Shropshire Archives, Castle Gates, Shrewsbury, Shropshire, SY1 2AQ",52.71078885,-2.751575174,https://www.shropshirearchives.org.uk/,libraries@shropshire.gov.uk,Both,
122,Slough,England,,"Slough Libraries, Local Studies","Library @ The Curve, William St, Slough, SL1 1XY",51.509894,-0.59461688,http://www.slough.gov.uk/libraries/local-studies.aspx,library@slough.gov.uk,Local Studies,
123,Solihull,England,437,Solihull Heritage & Local Studies,"The Core Library, Homer Road, Solihull, B91 3RG",52.4118118,-1.779979279,https://www.solihull.gov.uk/localhistory,heritage@solihull.gov.uk,Local Studies,
124,Somerset,England,,Somerset Archives and Local Studies,"Somerset Heritage Centre, Brunel Way, Norton Fitzwarren, Taunton, TA2 6SF",51.02582055,-3.137831245,https://swheritage.org.uk/somerset-archives/,somersetarchives@swheritage.org.uk,Both,
125,South Gloucestershire,England,,South Gloucestershire Libraries,,,,https://www.southglos.gov.uk/leisure-and-culture/libraries/library-services/local-history-collections/,,Local Studies,
126,South Tyneside,England,,South Tyneside Libraries,"The Word,45 Market Place,South Shields,Tyne & Wear,NE33 1DX",54.9974455,"-1.4382195,",https://www.southtyneside.gov.uk/article/34346/Local-history-and-heritage,library.support@southtyneside.gov.uk,Local Studies,
127,Southampton,England,,Local Studies and Maritime Library,"Central Library, Civic Centre, Southampton, SO14 7LW",50.90804385,-1.40648309,https://www.southampton.gov.uk/libraries/council-libraries/maritime-library.aspx,local.studies@southampton.gov.uk,Local Studies,
128,Southend on Sea,England,,Southend Library,"Southend Forum, Elmer Square,
Southend-on-Sea,
Essex,
SS1 1NS",51.538911,0.711425,https://www.southend.gov.uk/downloads/download/8/local_studies,council@southend.gov.uk,Local Studies,
129,Southwark,England,,Southwark Local History Library & Archive,"211 Borough High Street,London,SE1 1JA ",51.5017274,-0.0917292,https://www.southwark.gov.uk/libraries/local-history-library-and-archive/visiting-the-local-history-library-and-archive,https://www.southwark.gov.uk/libraries/local-history-library-and-archive/visiting-the-local-history-library-and-archive?emailUsContact=1560,Both,
130,Staffordshire,England,494,Stafford Library,"Stafford Library, Staffordshire Place,
Tipping Street, Stafford, ST16 2DH",52.80583785,-2.115054083,https://www.staffordshire.gov.uk/Libraries/Library-services/localfamilyhistory/Local-and-family-history-online.aspx,stafford.library@staffordshire.gov.uk,Local Studies,
131,Stockport,England,,Stockport Heritage Library,"Stockport Local Heritage Library,Wellington Road South,Stockport,SK1 3RS",53.4081405,-2.160629872,https://www.stockport.gov.uk/heritage-library-archives,localheritagelibrary@stockport.gov.uk,Both,
132,Stockton on Tees,England,,Stockton Libraries and Community Information Service,"Church Rd, Stockton-on-Tees, TS18 1TU",54.5666199,-1.311104117,https://www.stockton.gov.uk/arts-culture-and-leisure/libraries/reference-and-family-history-research/,reference.library@stockton.gov.uk,Local Studies,
133,Stoke on Trent,England,,Stoke on Trent City Archives,"Stoke-on-Trent City Archives,City Central Library,Bethesda Street,Hanley,Stoke on Trent,ST1 3RS",53.0223925,-2.17714039,https://www.staffordshire.gov.uk/Heritage-and-archives/about/Home.aspx,stoke.archives@stoke.gov.uk,Both,
134,Suffolk,England,,Suffolk Archives,"Suffolk Archives, 131 Fore St, Ipswich, IP4 1LN",52.0534549,1.16370135,https://www.suffolkarchives.co.uk/,ipswich.archives@suffolk.gov.uk,Both,
135,Sunderland,England,2958,Sunderland City Library and Arts Centre: Local Studies Library,"64 Fawcett Street, Sunderland, England, SR1 1RE",54.907459,-1.382042,https://www.sunderland.gov.uk/article/12831/Local-studies-and-family-history,enquiry.desk@sunderland.gov.uk,Local Studies,
136,Surrey,England,176,Surrey History Centre,"130 Goldsworth Road, Woking, England, GU21 6ND",51.317177,-0.570115,https://www.surreycc.gov.uk/culture-and-leisure/history-centre,shs@surreycc.gov.uk,Both,
137,Sutton,England,362,Sutton: Archives & Local Studies,"Level 2A, Central Library, St Nicholas Way, Sutton, London, SM1 1EA",51.36149,-0.194815,https://www.sutton.gov.uk/info/200168/libraries_museums_archives_and_arts,sutton.library@sutton.gov.uk,Both,
138,Swindon,England,525,Swindon Central Library,"Local Studies and Family History, Swindon Central Library, Regent Circus, Swindon, England, SN1 1QG",51.558808,-1.78116,https://www.swindon.gov.uk/info/20026/libraries/302/local_studies_local_history_and_genealogy,localstudies@swindon.gov.uk,Local Studies,
139,Tameside,England,131,Tameside Local Studies and Archives,"Central Library, Old Street, Ashton-under Lyne, England, OL6 7SG",53.487718,-2.098077,https://www.tameside.gov.uk/localstudies,https://public.tameside.gov.uk/contact/contact.asp?hide=true&dept=63&subject=,Local Studies,
140,Telford and Wrekin,England,,Community History Centre,"Wellington Library, Wellington Civic and Leisure Centre,Larkin Way,Wellington,Telford,TF1 1LX",52.6992304,-2.518689331,https://www.telford.gov.uk/info/20412/children_and_young_people/3455/local_history,libraryenquiries@telford.gov.uk,Local Studies,
141,Thurrock,England,3163,Thurrock Local Studies,"Grays Library, Orsett Road, Grays, England, RM17 5DX",51.479123,0.324478,https://www.thurrock.gov.uk/history-research-at-your-library/local-history,grays.library@thurrock.gov.uk,Local Studies,
142,Torbay,England,,Torbay Local Studies,"Torquay Library, Lymington Road, Torquay, TQ1 3DT",50.469245,-3.531922,https://www.torbay.gov.uk/libraries/local-studies/,torquay.library@​librariesunlimited.org.uk,Local Studies,
143,Tower Hamlets,England,,Tower Hamlets Local History Library,"277 Bancroft Road, London, E1 4DQ",51.523823,-0.042623,http://www.ideastore.co.uk/local-history,localhistory@towerhamlets.gov.uk,Both,
144,Trafford,England,742,Trafford Local Studies Centre,"Sale Library, Sale Waterside, Sale, England, M33 7ZF",53.425447,-2.320065,https://www.trafford.gov.uk/residents/leisure-and-lifestyle/libraries/archives-and-local-history.aspx,trafflocals@trafford.gov.uk,Both,
145,Wakefield,England,740,Wakefield Local studies library,"Wakefield Library, Wakefield One, Burton Street, Wakefield, WF1 2DD",53.68424363 -1.50373157,,www.wakefield.gov.uk/libraries-and-local-history/local-and-family-history,wakefieldlibrarymuseum@wakefield.gov.uk,Local Studies,
146,Walsall,England,,Walsall Local History Centre,"Walsall Local History Centre,Lichfield Street Hub,Lichfield Street,Walsall,WS1 1TR",52.586358,-1.978534,https://go.walsall.gov.uk/localhistorycentre,localhistorycentre@walsall.gov.uk,Both,
147,Waltham Forest,England,,Waltham Forest Archives and local studies library,"Vestry House Museum,Vestry Road ,Walthamstow,E17 9NH",51.58407205,-0.012838085,https://www.walthamforest.gov.uk/content/waltham-forest-archives-and-local-studies-library,vhm.enquiries@walthamforest.gov.uk,Both,
148,Wandsworth,England,,Wandsworth Heritage Service,"265 Lavender Hill,Battersea,London,SW11 1JB",51.4638827,-0.164153708,https://www.better.org.uk/library/london/wandsworth/wandsworth-heritage-service,heritage@gll.org,Both,
149,Warrington,England,,Warrington Local and family history,"Warrington Library, Museum Street, Warrington, WA1 1JB",53.38704635,-2.596305035,; ,searchroom@culturewarrington.org,Both,
150,Warwickshire,England,,The Warwickshire Collection,"Nuneaton Library, Church Street,Nuneaton,CV11 4DR",52.52212932,-1.464056556,https://www.warwickshire.gov.uk/localstudies,"libraryenquiryteam@warwickshire.gov.uk.
",Local Studies,
151,West Berkshire,England,,West Berkshire Libraries,"Newbury Library, The Wharf, Newbury, West Berkshire RG14 5AU",51.40155375,-1.32063405,www.westberks.gov.uk/libraries,library@westberks.gov.uk,Not clear,
152,West Sussex,England,,Worthing Library,"Worthing Library, Richmond Road, Worthing, West Sussex, BN11 1HD",50.8141742,-0.372319494,https://www.westsussex.gov.uk/leisure-recreation-and-community/history-and-heritage/local-studies-in-libraries/,EnquiriesTeam@westsussex.gov.uk ; Online enquiry form: https://www.westsussex.gov.uk/libraries/ask-a-librarian/                                                                                                  ,Local Studies,
153,Wigan,England,,Archives: Wigan and Leigh,"Leigh Town Hall, Civic Square, Market Street, Leigh, WN7 1DY",53.4972114,-2.519280952,https://www.wigan.gov.uk/Resident/Museums-archives/Wigan-Archives/Collections/Family-history.aspx,Online enquiry form: https://www.wigan.gov.uk/Contacts/Heritage.aspx                                                                                          ,Both,
154,Wigan,England,,Wigan Archives and Local Studies,"Museum of Wigan Life, Library Street, Wigan, WN1 1NU",53.54415175,-2.629721387,https://www.wigan.gov.uk/Resident/Museums-archives/Wigan-Archives/Collections/Family-history.aspx,Online enquiry form: https://www.wigan.gov.uk/Contacts/Heritage.aspx                                                                            ,Both,Plus museum
155,Wiltshire,England,,Wiltshire and Swindon History Centre,"Wiltshire Local Studies, Wiltshire and Swindon History Centre, Cocklebury Road, Chippenham SN15 3QN",51.4639403,-2.108909312,http://www.wshc.eu/our-services/wiltshire-local-studies.html,heritageadmin@wiltshire.gov.uk,Both,
156,Windsor and Maidenhead,England,3293,Maidenhead Library,"Maidenhead Library, St. Ives Road, Maidenhead, Berkshire, SL6 1QU                                ",51.52214497,-0.717763445,https://www3.rbwm.gov.uk/info/200198/local_history_and_heritage/443/local_and_family_history_-_resources_available,maidenhead.library@rbwm.gov.uk,Local Studies,
157,Windsor and Maidenhead,England,3293,Windsor Library,"Windsor Library, Bachelors Acre, Windsor, Berkshire SL4 1ER                                                       ",51.48060708,-0.60935284,https://www3.rbwm.gov.uk/info/200198/local_history_and_heritage/443/local_and_family_history_-_resources_available,windsor.library@rbwm.gov.uk,Local Studies,
158,Westminster,England,,City of Westminster Archives Centre,"City of Westminster Archives Centre, 10 St Ann's Street, Westminster, London SW1P 2DE",51.4975772,-0.130133146,https://www.westminster.gov.uk/archives,archives@westminster.gov.uk,Both,
159,Wirral,England,,Birkenhead Central Library,"Birkenhead Central Library, Borough Road, Birkenhead, Wirral, CH41 2XB",53.38605872,-3.031661373,https://www.wirral.gov.uk/libraries-and-archives/local-and-family-history,birkenheadreflib@wirral.gov.uk        Online research request: https://my.wirral.gov.uk/service/Library_research_application_form,Local Studies,
160,Wokingham,England,,Wokingham Library,"Wokingham Library, Denmark Street, Wokingham, Berkshire, RG40 2BB",51.40823943,-0.835670189,https://www.wokingham.gov.uk/births-deaths-and-marriages/local-and-family-history/historical-information-and-maps/,libraries@wokingham.gov.uk,Local Studies,
161,Wolverhampton,England,,Wolverhampton Arts & Culture,"Wolverhampton City Archives, Molineux Hotel Building, Whitmore Hill, Wolverhampton, West Midlands, WV1 1SF 
",52.58856255,-2.130634955,http://www.wolverhamptonart.org.uk/visit/wolverhampton-archives/,archives@wolverhampton.gov.uk <archives@wolverhampton.gov.uk>;,Both,
162,Worcestershire,England,,The Hive (Worcestershire City Council and the University of Worcester),"The Hive, Sawmill Walk, The Butts, Worcester, WR1 3PD",52.19372935,-2.225993079,http://www.thehiveworcester.org/special-collections.html,TheHiveLibrary@worcestershire.gov.uk <TheHiveLibrary@worcestershire.gov.uk>;,Local Studies,
163,York,England,,York Explore Library and Archive,"York Explore Library and Archive, Library Square, York, YO1 7DS",53.9613,-1.086068,https://www.exploreyork.org.uk/archives/,york@exploreyork.org.uk,Both,
164,West Yorkshire,England,2494,John Goodchild Collection,"West Yorkshire History Centre, 127 Kirkgate, Wakefield, England, WF1 1JG",53.6796571,-1.491609033,https://www.wyjs.org.uk/archive-service/contact-us-and-opening-times/west-yorkshire-history-centre-wakefield-archive-service-opening-times-and-information/,wakefield@wyjs.org.uk,Both,
165,Northern Ireland,Northern Ireland,,"Irish and Local Studies Library, Armagh","39c Abbey Street, Armagh, BT61 7EB ",54.348826,-6.657407,https://www.librariesni.org.uk/Services/Heritage/Pages/Irish-and-Local-Studies-Library-Armagh.aspx,armaghirishandlocal@librariesni.org.uk,Local Studies,
166,Northern Ireland,Northern Ireland,,Ballymena Central Library,"5 Pat’s Brae, Ballymena, BT43 5AX ",54.8648025,-6.27802194,https://www.librariesni.org.uk/Services/Heritage/Pages/Ballymena-Central-Library.aspx,ballymena.heritage@librariesni.org.uk,Local Studies,
167,Northern Ireland,Northern Ireland,1665,Belfast Central Library,"Royal Avenue, Belfast, BT1 1EA",54.6028496,-5.931362183,https://www.librariesni.org.uk/Services/Heritage/Pages/Belfast-Central-Library.aspx,belfast.heritage@librariesni.org.uk,Local Studies,
168,Northern Ireland,Northern Ireland,,Derry Central Library,"35m Foyle Street, Derry,  County Londonderry, BT48  6AL ",54.996284,-7.318507,https://www.librariesni.org.uk/Services/Heritage/Pages/Derry-Central-Library.aspx,derrycentral.library@librariesni.org.uk,Local Studies,
169,Northern Ireland,Northern Ireland,,Downpatrick Library,"Market Street, Downpatrick, BT30 6LZ",54.32626495,-5.7189504,https://www.librariesni.org.uk/Services/Heritage/Pages/Downpatrick-Library.aspx,localstudies.down@librariesni.org.uk,Local Studies,
170,Northern Ireland,Northern Ireland,,Enniskillen Library,"Hall’s Lane, Enniskillen, BT74 7DR",54.347571,-7.64051,https://www.librariesni.org.uk/Services/Heritage/Pages/Enniskillen-Library.aspx,enniskillen.library@librariesni.org.uk,Local Studies,
171,Northern Ireland,Northern Ireland,,Newry City Library,"79 Hill Street, Newry, BT34 1DG ",54.17682775,-6.337084698,https://www.librariesni.org.uk/Services/Heritage/Pages/Newry-City-Library.aspx,newry.heritage@librariesni.org.uk,Local Studies,
172,Northern Ireland,Northern Ireland,,Omagh Library,"1 Spillars Place,  Omagh,  Co Tyrone,  BT78 1HL ",54.599185,-7.297827,https://www.librariesni.org.uk/Services/Heritage/Pages/Omagh-Library.aspx,omagh.library@librariesni.org.uk,Local Studies,
173,Northern Ireland,Northern Ireland,,Mellon Centre for Migration Studies ,"Ulster American Folk Park, 2 Mellon Road, Omagh, Northern Ireland, BT78 5QU",54.659547,-7.334884,https://www.librariesni.org.uk/Services/Heritage/Pages/Mellon-Centre-for-Migration-Studies.aspx,mcms@librariesni.org.uk,Local Studies,
174,Blaenau Gwent Libraries,Wales,,,,,,http://aneurinleisure.org.uk/heritage/libraries,,Local Studies,
175,"Bridgend Library Service, Awen Cultural Trust",Wales,,Y Llynfi Local and Family History Library,"Maesteg Library, North’s Lane, Maesteg, CF34 9AA",51.6090811,-3.65712729,https://awen-libraries.azurewebsites.net/family-tree-research/,maesteg.library@awen-wales.com,Local Studies,
176,Bridgend Library Service,Wales,,LOCAL & FAMILY HISTORY CENTRE,"Maesteg Sports Centre, Old Forge Site, Nant y Crynwydd, Maesteg, Bridgend, CF34 9EB",51.610657,-3.663853,,localandfamilyhistory@awen-wales.com,Local Studies,
177,Caerphilly,Wales,,Bargoed library,"Hanbury Chapel, 6a Hanbury Road, Bargoed, CF81 8QR",51.6899311,"-3.2286878,",https://www.caerphilly.gov.uk/Services/Libraries/Trace-your-family-tree,libbarg@caerphilly.gov.uk,,
178,Cardiff,Wales,,Cathays Branch and Heritage Library,"Fairoak Road, Cathays, CF24 4PW",51.4973522,-3.182141278,https://cardiffhubs.co.uk/hub/cathays-branch-and-heritage-library/,,Local Studies,
179,Non LA,England,603,Media Archive for Central England (MACE),"The Media Archive for Central England, The University of Lincoln, Alfred Tennyson Building, Brayford Pool, Lincoln, LN6 7TS",53.229208,-0.549952,https://www.macearchive.org/,mace@lincoln.ac.uk,Archive,Public film archive for the East and West Midlands. 
180,Non LA,England,,The National Archives Reference Library,"The National Archives
Kew, Richmond, Surrey,
TW9 4DU",51.48111545,-0.279190491,http://www.nationalarchives.gov.uk/about/visit-us/researching-here/using-the-national-archives-reference-library/,?,Local Studies,
181,Non LA,England,118,Society of Antiquaries of London Library,"Society of Antiquaries of London, Burlington House Piccadilly, London, W1J 0BE",51.508853,-0.139324,https://www.sal.org.uk/library/,library@sal.org.uk,Both,"Collects on all regions of Britain. Focus on antiquities, topography, architecture."
182,Non LA,England,338,University of Leicester Library,"University of Leicester, University Library, University Road, Leicester, LE1 7RH",52.62169525,-1.124694574,https://www2.le.ac.uk/library,library@le.ac.uk,Both,Collects on all historic counties of England.
183,Non LA,England,3508,Institute of Historical Research Library,"Senate House, Malet Street, London, WC1E 7HU",51.52131956,-0.128799842,https://www.history.ac.uk/library,ihr.library@sas.ac.uk,Local Studies,Mainly collect published primary sources. Covers Britain and Ireland. 
184,Non LA,England,134,The John Rylands Library,"The John Rylands Library, 150 Deansgate, Manchester, M3 3EH",53.4803847,-2.249154971,https://www.library.manchester.ac.uk/rylands/,uml.special-collections@manchester.ac.uk,Both,"Many collections relating to Manchester and region, particularly on business and religion."
185,Non LA,England, 3228,Ahmed Iqbal Ullah Race Relations Resource Centre,"Lower Ground Floor, Central Library, St Peter’s Square, Manchester, M2 5PD",53.4781312,-2.244709591,http://www.racearchive.manchester.ac.uk/,rrarchive@manchester.ac.uk,Both,Focus on BAME history in Manchester. Includes 300 oral history interviews. 
186,Non LA,England,372,Bishopsgate Institute Library,"Bishopsgate Institute, 230 Bishopsgate, London, EC2M 4QH",51.5186773,-0.0793179,https://www.bishopsgate.org.uk/Library, library@bishopsgate.org.uk ,Both,"Focus on London, radicalism and the counter-culture. Oral history and street photography."
187,Non LA,England,1585,Historic England Library and Archive,"Library,The Engine House,Fire Fly Avenue,Swindon,SN2 2EH",51.5637039,-1.793513845,https://historicengland.org.uk/images-books/archive/library/,library@HistoricEngland.org.uk,Both,"60,000 print items covering the historic environment. Photographic archive: over a million photos of England's archaeology, historic buildings and social history. "
188,Non LA,England,159,University of Nottingham Manuscripts and Special Collections - the East Midlands Collection,"University of Nottingham , Manuscripts and Special Collections, Kings Meadow Campus,Lenton Lane,Nottingham, NG7 2NR",52.937903,-1.171234,https://www.nottingham.ac.uk/manuscriptsandspecialcollections/collectionsindepth/eastmidlandscollection/eastmidlandscollection.aspx, mss-library@nottingham.ac.uk,Both,
189,Non LA,England,738,University of Southampton - Cope Collection ,"Special Collections, Hartley Library, University of Southampton, Highfield, Southampton, SO17 1BJ",50.935138,-1.395985,http://library.soton.ac.uk/cope/home,archives@soton.ac.uk,Both,Focus on Southampton and Hampshire. 
190,Non LA,England,2943,University of York - Yorkshire collection,"University Library, University of York, Heslington, York, YO10 5DD",53.9491671,-1.052063864,https://www.york.ac.uk/library/collections/strengths/yorkshire/,lib-enquiry@york.ac.uk,Local Studies,
191,Non LA,England,206,"University of Leeds Library, Special Collections","Brotherton Library, University of Leeds, Woodhouse Ln, Leeds, LS2 9JT",53.80788745,-1.553331718,https://library.leeds.ac.uk/special-collections/subject-theme/653/yorkshire,specialcollections@library.leeds.ac.uk,Both,Includes Yorkshire Archaeological & Historical Society collections.
192,Non LA,England,172,Keele University Library - Local Collection,"Library, Keele University, Keele, Staffordshire, ST5 5BG",53.00134685,-2.272272803,https://www.keele.ac.uk/library/specarc/collections/localcollection/, library.help@keele.ac.uk,Local Studies,"5,000 books, plus pamphlets, newspapers, periodicals and directories, devoted mainly to Staffordshire, but also covering Cheshire, Derbyshire and Shropshire."
193,Non LA,England,74,London Metropolitan University Library Special Collections,"The Wash Houses, 25 Old Castle Street,London,E1 7NT",51.51622208,-0.074086932,https://student.londonmet.ac.uk/library/using-the-library/special-collections/trades-union-congress-library-collections,tuclib@londonmet.ac.uk,Both,"Trade Union and communtiy history with focus on London. TUC Library is housed here, London Trades Council minutes 1860 - 1970; London Bookbinders and Paperworkers.  London Met Collections include: Archive of the Irish in Britain; Community Media Collection (community radio and TV in UK); East End Archive (artists); E & A Wates Archive (East London business.)"
194,Non LA,England,468,"The Queen's College, Oxford","The Queen's College, High Street, Oxford, OX1 4AW",51.75353785,-1.250327107,queens.ox.ac.uk,library@queens.ox.ac.uk,Both,"The Bridgewater Collection: over 200 rare bibliographic items related to Cumberland and Westmorland, c. 1700-current.  The College has a historic collection with the area.  A large and important collection of heraldic visitation MSS related to various parts of England, collected and copied in the C16th and 17th."
195,Non LA,England,1178,Manchester Metropolitan University Library,"All Saints Library,Manchester,M15 6BH",53.470795,-2.23869,https://www.mmu.ac.uk/library,library@mmu.ac.uk,Both,"Greater Manchester-related books, journals, pamphlets, ephemera, parish register transcripts and more, plus a 'Manchester Bibliography' card index of mainly articles, related to Manchester history from c.1975-1995. Also home to the North West Film Archive."
196,Non LA,England,,HADAS - Hendon and District Archaeological Society,Barnet,,,hadas.org.uk,chairman@hadas.org.uk,Local Studies,A small number of local (Barnet) books and excavation reports.
197,Non LA,England,2191,Museum of the Order of St John,"The Museum of the Order of St John, St John’s Gate, St John’s Lane,Clerkenwell, London, EC1M 4DA",51.522006,-0.1025564,https://museumstjohn.org.uk/,museum@sja.org.uk,Both,"The Museum of the Order of St John holds museum, library and archive collections relating to the Order of St John and St John's Ambulance. Material on Clerkenwell Priory is relevant to the history of London. "
198,Non LA,England,96,Senate House Library,"Senate House Library,University of London,Malet Street,London,WC1E 7HU",51.52080338,-0.128237466,https://london.ac.uk/senate-house-library,argula.rublack@london.ac.uk,Local Studies,"Senate House Library has strong print and electronic collections of resources about British history, covering all regions of the UK.  Our research collections include academic monographs and journals but also more unusual materials such as pamphlets or the output of small press publishers. We also hold a series of local history journals covering most regions of the UK. "
